[{"OBJECT_NAME":"STARLINK-30083","OBJECT_ID":"2023-056K","EPOCH":"2026-03-09T22:00:01.999584","MEAN_MOTION":15.23112858,"ECCENTRICITY":0.00011245,"INCLINATION":43.0002,"RA_OF_ASC_NODE":182.0509,"ARG_OF_PERICENTER":286.4689,"MEAN_ANOMALY":225.5641,"EPHEMERIS_TYPE":0,"CLASSIFICATION_TYPE":"U","NORAD_CAT_ID":56295,"ELEMENT_SET_NO":999,"REV_AT_EPOCH":578,"BSTAR":0.059898212,"MEAN_MOTION_DOT":0.01587924,"MEAN_MOTION_DDOT":0},{"OBJECT_NAME":"HORS 4 (RS82S)","OBJECT_ID":"2024-199V","EPOCH":"2026-03-09T21:47:16.934496","MEAN_MOTION":15.51209314,"ECCENTRICITY":0.00051454,"INCLINATION":97.3098,"RA_OF_ASC_NODE":303.8763,"ARG_OF_PERICENTER":286.2787,"MEAN_ANOMALY":73.7899,"EPHEMERIS_TYPE":0,"CLASSIFICATION_TYPE":"U","NORAD_CAT_ID":61754,"ELEMENT_SET_NO":999,"REV_AT_EPOCH":12221,"BSTAR":0.00073987436,"MEAN_MOTION_DOT":0.00043371,"MEAN_MOTION_DDOT":0}]
